OBJECT_NAME,OBJECT_ID,EPOCH,MEAN_MOTION,ECCENTRICITY,INCLINATION,RA_OF_ASC_NODE,ARG_OF_PERICENTER,MEAN_ANOMALY,EPHEMERIS_TYPE,CLASSIFICATION_TYPE,NORAD_CAT_ID,ELEMENT_SET_NO,REV_AT_EPOCH,BSTAR,MEAN_MOTION_DOT,MEAN_MOTION_DDOT
PLEIADES 1A,2011-076F,2026-07-02T20:23:27.275136,14.58540456,.0001761,98.1977,258.7419,86.7315,48.8719,0,U,38012,999,77427,.71125E-4,.285E-5,0
NIGCOMSAT 1R,2011-077A,2026-07-02T19:56:12.607008,1.00271795,.0002623,0.0392,195.0240,161.7137,265.6544,0,U,38014,999,5311,0,.156E-5,0
ZIYUAN 1-02C (ZY 1-02C),2011-079A,2026-07-02T21:06:06.679872,14.38226959,.000513,98.4068,250.8595,259.6195,219.9586,0,U,38038,999,76146,.13824E-3,.377E-5,0
GLOBALSTAR M084,2011-080A,2026-07-02T19:28:15.550176,12.62267693,.000106,52.0026,329.7172,111.2971,54.4628,0,U,38040,999,67073,.50703E-4,-.95E-6,0
GLOBALSTAR M080,2011-080B,2026-07-02T20:40:30.906048,12.62265375,.0000441,52.0078,331.2881,81.0392,82.9213,0,U,38041,999,67086,.39045E-6,-.104E-5,0
GLOBALSTAR M082,2011-080C,2026-07-02T17:14:41.714304,12.62263848,.0000383,52.0081,287.2267,111.1723,52.7414,0,U,38042,999,67155,.15027E-3,-.77E-6,0
GLOBALSTAR M092,2011-080D,2026-07-02T19:39:19.193760,12.62267382,.0000847,52.0100,17.3181,86.5780,293.1501,0,U,38043,999,67002,.10372E-3,-.85E-6,0
GLOBALSTAR M090,2011-080E,2026-07-02T13:17:06.313920,12.62252560,.0000524,52.0133,281.6896,105.7704,267.0066,0,U,38044,999,67165,-.73109E-4,-.117E-5,0
GLOBALSTAR M086,2011-080F,2026-07-02T18:26:27.743424,12.62287504,.0001674,51.9900,280.9397,93.1440,78.7299,0,U,38045,999,67162,.23762E-3,-.61E-6,0
WGS F4 (USA 233),2012-003A,2026-07-02T19:10:59.943360,1.00267905,.0001623,0.0212,33.4355,91.9508,171.6061,0,U,38070,999,4430,0,0,0
LARES,2012-006A,2026-07-02T20:00:10.389312,12.54932139,.0008064,69.4902,265.5213,10.8699,349.2500,0,U,38077,999,65903,.15817E-4,-.36E-6,0
SES-4,2012-007A,2026-07-02T08:44:38.700384,1.00271083,.0002404,0.0229,41.5467,57.1982,290.8171,0,U,38087,999,5237,0,-.158E-5,0
BEIDOU-2 G5,2012-008A,2026-07-02T21:06:16.323840,1.00267783,.0007738,3.6110,69.6055,275.8177,310.8475,0,U,38091,999,5252,0,.66E-6,0
MUOS-1,2012-009A,2026-07-02T09:53:50.531424,1.00272608,.0057542,5.5065,47.1375,2.7009,279.1001,0,U,38093,999,5259,0,-.12E-5,0
INTELSAT 22 (IS-22),2012-011A,2026-07-02T18:52:07.641984,1.00271303,.000169,0.0166,45.4365,51.6171,178.8880,0,U,38098,999,734,0,-.48E-6,0
APSTAR-7,2012-013A,2026-07-02T21:11:23.334144,1.00272063,.0003309,0.0284,82.5598,25.9510,206.7670,0,U,38107,999,5196,0,-.91E-6,0
YAHSAT 1B,2012-016A,2026-07-02T05:39:12.553344,1.00267795,.0003263,0.0892,88.9189,30.5528,293.2016,0,U,38245,999,4575,0,.137E-5,0
BEIDOU-2 M3,2012-018A,2026-07-02T05:21:52.450272,1.86230266,.0020578,55.7439,304.3684,273.0142,86.7629,0,U,38250,999,9622,0,-.64E-6,0
BEIDOU-2 M4,2012-018B,2026-07-01T01:57:58.611168,1.86229794,.00115796,55.6447,303.6195,274.1308,85.7452,0,U,38251,999,9620,0,-.69E-6,0
AEHF-2 (USA 235),2012-019A,2026-07-02T10:28:53.013216,1.00273153,.000214,6.6849,57.3774,43.1087,320.6762,0,U,38254,999,714,0,-.128E-5,0
YAOGAN-14,2012-021A,2026-07-02T21:03:23.827104,15.28127775,.000635,97.3052,320.8450,118.9826,241.2051,0,U,38257,999,78821,.26833E-3,.729E-4,0
JCSAT-13,2012-023A,2026-07-02T19:52:15.040704,1.00270182,.0002982,0.0173,26.9753,87.3188,228.6262,0,U,38331,999,5169,0,-.345E-5,0
VINASAT-2,2012-023B,2026-07-02T20:01:45.672096,1.00270653,.000253,0.0177,337.1066,129.5911,246.4572,0,U,38332,999,4681,0,-.318E-5,0
GCOM-W1 (SHIZUKU),2012-025A,2026-07-02T19:39:08.810208,14.57139347,.0001537,98.2022,124.1380,67.5581,313.1459,0,U,38337,999,75131,.13274E-3,.553E-5,0
ARIRANG-3 (KOMPSAT-3),2012-025B,2026-07-02T20:09:45.112608,14.62220329,.0006746,98.1178,141.0305,70.3879,289.8050,0,U,38338,999,75363,.11088E-3,.512E-5,0
SDS-4,2012-025C,2026-07-02T20:14:39.167232,14.75848187,.0005545,98.1382,279.8693,242.9553,117.1091,0,U,38339,999,75829,.20963E-3,.1386E-4,0
NIMIQ 6,2012-026A,2026-07-02T13:32:58.530048,1.00272332,.0002902,0.0405,276.8525,186.1950,289.6978,0,U,38342,999,5056,0,-.163E-5,0
ZHONGXING-2A,2012-028A,2026-07-02T20:02:45.902400,1.00271776,.0001996,1.4932,83.6993,29.4915,206.6078,0,U,38352,999,5145,0,-.283E-5,0
YAOGAN-15,2012-029A,2026-07-02T21:10:52.381344,13.18384233,.0024733,100.7335,28.9408,256.0881,103.7481,0,U,38354,999,67751,-.55041E-3,-.264E-5,0
INTELSAT 19 (IS-19),2012-030A,2026-07-02T18:11:30.844896,1.00271623,.0003387,0.0182,15.1062,96.1895,248.3746,0,U,38356,999,5060,0,-.46E-6,0
NUSTAR,2012-031A,2026-07-02T20:00:03.000384,15.08946710,.0008094,6.0274,276.7804,332.2120,17.8043,0,U,38358,999,130,.11562E-2,.1973E-3,0
