PLEIADES 1A             
1 38012U 11076F   26183.84962124  .00000285  00000+0  71125-4 0  9999
2 38012  98.1977 258.7419 0001761  86.7315  48.8719 14.58540456774274
NIGCOMSAT 1R            
1 38014U 11077A   26183.83070147  .00000156  00000+0  00000+0 0  9992
2 38014   0.0392 195.0240 0002623 161.7137 265.6544  1.00271795 53116
ZIYUAN 1-02C (ZY 1-02C) 
1 38038U 11079A   26183.87924398  .00000377  00000+0  13824-3 0  9997
2 38038  98.4068 250.8595 0005130 259.6195 219.9586 14.38226959761462
GLOBALSTAR M084         
1 38040U 11080A   26183.81129109 -.00000095  00000+0  50703-4 0  9999
2 38040  52.0026 329.7172 0001060 111.2971  54.4628 12.62267693670738
GLOBALSTAR M080         
1 38041U 11080B   26183.86146882 -.00000104  00000+0  39045-6 0  9991
2 38041  52.0078 331.2881 0000441  81.0392  82.9213 12.62265375670869
GLOBALSTAR M082         
1 38042U 11080C   26183.71853836 -.00000077  00000+0  15027-3 0  9990
2 38042  52.0081 287.2267 0000383 111.1723  52.7414 12.62263848671558
GLOBALSTAR M092         
1 38043U 11080D   26183.81897215 -.00000085  00000+0  10372-3 0  9998
2 38043  52.0100  17.3181 0000847  86.5780 293.1501 12.62267382670027
GLOBALSTAR M090         
1 38044U 11080E   26183.55354530 -.00000117  00000+0 -73109-4 0  9993
2 38044  52.0133 281.6896 0000524 105.7704 267.0066 12.62252560671653
GLOBALSTAR M086         
1 38045U 11080F   26183.76837666 -.00000061  00000+0  23762-3 0  9999
2 38045  51.9900 280.9397 0001674  93.1440  78.7299 12.62287504671624
WGS F4 (USA 233)        
1 38070U 12003A   26183.79930490  .00000000  00000+0  00000+0 0  9993
2 38070   0.0212  33.4355 0001623  91.9508 171.6061  1.00267905 44305
LARES                   
1 38077U 12006A   26183.83345358 -.00000036  00000+0  15817-4 0  9998
2 38077  69.4902 265.5213 0008064  10.8699 349.2500 12.54932139659037
SES-4                   
1 38087U 12007A   26183.36433681 -.00000158  00000+0  00000+0 0  9993
2 38087   0.0229  41.5467 0002404  57.1982 290.8171  1.00271083 52377
BEIDOU-2 G5             
1 38091U 12008A   26183.87935560  .00000066  00000+0  00000+0 0  9995
2 38091   3.6110  69.6055 0007738 275.8177 310.8475  1.00267783 52523
MUOS-1                  
1 38093U 12009A   26183.41239041 -.00000120  00000+0  00000+0 0  9991
2 38093   5.5065  47.1375 0057542   2.7009 279.1001  1.00272608 52591
INTELSAT 22 (IS-22)     
1 38098U 12011A   26183.78619956 -.00000048  00000+0  00000+0 0  9995
2 38098   0.0166  45.4365 0001690  51.6171 178.8880  1.00271303  7348
APSTAR-7                
1 38107U 12013A   26183.88290896 -.00000091  00000+0  00000+0 0  9995
2 38107   0.0284  82.5598 0003309  25.9510 206.7670  1.00272063 51969
YAHSAT 1B               
1 38245U 12016A   26183.23556196  .00000137  00000+0  00000+0 0  9998
2 38245   0.0892  88.9189 0003263  30.5528 293.2016  1.00267795 45754
BEIDOU-2 M3             
1 38250U 12018A   26183.22352373 -.00000064  00000+0  00000+0 0  9996
2 38250  55.7439 304.3684 0020578 273.0142  86.7629  1.86230266 96223
BEIDOU-2 M4             
1 38251U 12018B   26182.08192837 -.00000069  00000+0  00000+0 0  9992
2 38251  55.6447 303.6195 0011579 274.1308  85.7452  1.86229794 96203
AEHF-2 (USA 235)        
1 38254U 12019A   26183.43672469 -.00000128  00000+0  00000+0 0  9996
2 38254   6.6849  57.3774 0002140  43.1087 320.6762  1.00273153  7140
YAOGAN-14               
1 38257U 12021A   26183.87735911  .00007290  00000+0  26833-3 0  9994
2 38257  97.3052 320.8450 0006350 118.9826 241.2051 15.28127775788210
JCSAT-13                
1 38331U 12023A   26183.82795186 -.00000345  00000+0  00000+0 0  9993
2 38331   0.0173  26.9753 0002982  87.3188 228.6262  1.00270182 51699
VINASAT-2               
1 38332U 12023B   26183.83455639 -.00000318  00000+0  00000+0 0  9991
2 38332   0.0177 337.1066 0002530 129.5911 246.4572  1.00270653 46813
GCOM-W1 (SHIZUKU)       
1 38337U 12025A   26183.81885197  .00000553  00000+0  13274-3 0  9993
2 38337  98.2022 124.1380 0001537  67.5581 313.1459 14.57139347751313
ARIRANG-3 (KOMPSAT-3)   
1 38338U 12025B   26183.84010547  .00000512  00000+0  11088-3 0  9992
2 38338  98.1178 141.0305 0006746  70.3879 289.8050 14.62220329753639
SDS-4                   
1 38339U 12025C   26183.84350888  .00001386  00000+0  20963-3 0  9990
2 38339  98.1382 279.8693 0005545 242.9553 117.1091 14.75848187758296
NIMIQ 6                 
1 38342U 12026A   26183.56456632 -.00000163  00000+0  00000+0 0  9997
2 38342   0.0405 276.8525 0002902 186.1950 289.6978  1.00272332 50564
ZHONGXING-2A            
1 38352U 12028A   26183.83525350 -.00000283  00000+0  00000+0 0  9997
2 38352   1.4932  83.6993 0001996  29.4915 206.6078  1.00271776 51450
YAOGAN-15               
1 38354U 12029A   26183.88255071 -.00000264  00000+0 -55041-3 0  9994
2 38354 100.7335  28.9408 0024733 256.0881 103.7481 13.18384233677510
INTELSAT 19 (IS-19)     
1 38356U 12030A   26183.75799589 -.00000046  00000+0  00000+0 0  9999
2 38356   0.0182  15.1062 0003387  96.1895 248.3746  1.00271623 50609
NUSTAR                  
1 38358U 12031A   26183.83336806  .00019730  00000+0  11562-2 0  9997
2 38358   6.0274 276.7804 0008094 332.2120  17.8043 15.08946710  1304
